NOAA 18
1 28654U 05018A  26047.80459093  .00000058  00000+0  53698-4 0  9993
2 28654  98.8193 129.2006 0015144 130.8601 229.3887 14.13706409 69301